     2.100          NAVIGATION                              RINEX VERSION / TYPE
fic2rin                                 09/18/2008 01:35:41 PGM / RUN BY / DATE
                                                            END OF HEADER
18 08  9 17  8  0  0.0 -.133040361106D-03  .409272615798D-11  .000000000000D+00
     .940000000000D+02 -.408125000000D+02  .537665253059D-08 -.216414635128D+01
    -.222213566303D-05  .988015916664D-02  .137090682983D-05  .515371463776D+04
     .288000000000D+06  .100582838058D-06 -.108600636914D+01 -.819563865662D-07
     .945779980492D+00  .343875000000D+03 -.246427458969D+01 -.874322133312D-08
    -.110718897601D-10  .100000000000D+01  .149700000000D+04  .000000000000D+00
     .340000000000D+01  .000000000000D+00 -.107102096081D-07  .940000000000D+02
     .280806000000D+06  .400000000000D+01
19 08  9 17  8  0  0.0  .354647636414D-04  .113686837722D-12  .000000000000D+00
     .800000000000D+02 -.210312500000D+02  .421874715632D-08  .225509181065D+01
    -.977888703346D-06  .489488267340D-02  .127200037241D-04  .515374113464D+04
     .288000000000D+06 -.502914190292D-07  .313865512433D+01  .372529029846D-08
     .957916625370D+00  .131687500000D+03 -.490179112328D+00 -.779961059937D-08
    -.439661170795D-09  .100000000000D+01  .149700000000D+04  .000000000000D+00
     .240000000000D+01  .000000000000D+00 -.144354999065D-07  .800000000000D+02
     .280806000000D+06  .400000000000D+01
20 08  9 17  8  0  0.0  .104413833469D-03 -.102318153949D-11  .000000000000D+00
     .610000000000D+02 -.174062500000D+02  .539629620597D-08 -.210403793667D+01
    -.864267349243D-06  .351785577368D-02  .145100057125D-05  .515376700592D+04
     .288000000000D+06  .800937414169D-07 -.113970394758D+01  .391155481339D-07
     .945298026520D+00  .342812500000D+03  .136686650476D+01 -.872357765774D-08
     .142863093678D-11  .100000000000D+01  .149700000000D+04  .000000000000D+00
     .240000000000D+01  .000000000000D+00 -.651925802231D-08  .610000000000D+02
     .280806000000D+06  .400000000000D+01
21 08  9 17  8  0  0.0  .502988696098D-04 -.147792889038D-11  .000000000000D+00
     .100000000000D+02  .129187500000D+03  .506556814410D-08 -.963042454790D+00
     .676326453686D-05  .142942109378D-01  .766664743423D-05  .515369032097D+04
     .288000000000D+06  .383704900742D-06 -.214498874415D+01 -.242143869400D-07
     .935499976152D+00  .213906250000D+03 -.267852256312D+01 -.851571185644D-08
     .545737017852D-09  .100000000000D+01  .149700000000D+04  .000000000000D+00
     .240000000000D+01  .000000000000D+00 -.116415321827D-07  .100000000000D+02
     .280806000000D+06  .400000000000D+01
22 08  9 17  8  0  0.0  .210882164538D-03 -.113686837722D-12  .000000000000D+00
     .660000000000D+02 -.356562500000D+02  .542772608658D-08  .290256257579D+01
    -.193342566490D-05  .514280260541D-02  .159442424774D-05  .515366297340D+04
     .288000000000D+06  .242143869400D-07 -.107975915450D+01 -.502914190292D-07
     .943431334273D+00  .341937500000D+03 -.183085297735D+01 -.875750764249D-08
    -.122862260563D-09  .100000000000D+01  .149700000000D+04  .000000000000D+00
     .485000000000D+01  .000000000000D+00 -.176951289177D-07  .660000000000D+02
     .280806000000D+06  .400000000000D+01
23 08  9 17  8  0  0.0  .373457558453D-03  .147792889038D-11  .000000000000D+00
     .490000000000D+02 -.875625000000D+02  .423160483476D-08  .158697179298D+01
    -.440701842308D-05  .587619107682D-02  .104606151581D-04  .515369750786D+04
     .288000000000D+06  .689178705215D-07 -.692080269293D-01 -.186264514923D-08
     .971535342312D+00  .182125000000D+03  .283315662190D+01 -.788782855972D-08
    -.323584907182D-09  .100000000000D+01  .149700000000D+04  .000000000000D+00
     .240000000000D+01  .000000000000D+00 -.200234353542D-07  .490000000000D+02
     .280806000000D+06  .400000000000D+01
24 08  9 17  8  0  0.0  .125919934362D-03  .306954461848D-11  .000000000000D+00
     .580000000000D+02  .132000000000D+03  .463912180947D-08 -.229764788107D+01
     .694394111633D-05  .751178723294D-02  .777281820774D-05  .515366971588D+04
     .288000000000D+06 -.633299350739D-07 -.211710945495D+01  .117346644402D-06
     .952126300522D+00  .226843750000D+03 -.711075472039D+00 -.823998608564D-08
     .552880172536D-09  .100000000000D+01  .149700000000D+04  .000000000000D+00
     .240000000000D+01  .000000000000D+00 -.139698386192D-08  .580000000000D+02
     .280806000000D+06  .400000000000D+01
26 08  9 17  8  0  0.0  .326756853610D-03  .557065504836D-11  .000000000000D+00
     .600000000000D+01 -.770312500000D+02  .379908681864D-08  .108303074842D+01
    -.387057662010D-05  .191494068131D-01  .120941549540D-04  .515363400269D+04
     .288000000000D+06 -.214204192162D-06 -.248430787911D-01  .204890966415D-06
     .993699888320D+00  .168750000000D+03  .953724444897D+00 -.790747223510D-08
    -.380730144653D-09  .100000000000D+01  .149700000000D+04  .000000000000D+00
     .240000000000D+01  .000000000000D+00 -.605359673500D-08  .600000000000D+01
     .280806000000D+06  .400000000000D+01
27 08  9 17  8  0  0.0  .218210276216D-03  .272848410532D-11  .000000000000D+00
     .600000000000D+02  .520625000000D+02  .418803159118D-08 -.182947245374D+01
     .280886888504D-05  .211540583987D-01  .967085361481D-05  .515373111534D+04
     .288000000000D+06  .324100255966D-06  .913632370330D+00  .303611159325D-06
     .970868743209D+00  .195500000000D+03 -.168662962148D+01 -.768603443990D-08
     .438946855327D-09  .100000000000D+01  .149700000000D+04  .000000000000D+00
     .340000000000D+01  .000000000000D+00 -.419095158577D-08  .600000000000D+02
     .280806000000D+06  .400000000000D+01
28 08  9 17  8  0  0.0 -.225389376283D-04 -.227373675443D-12  .000000000000D+00
     .530000000000D+02 -.311875000000D+02  .477984195675D-08 -.304731287622D+01
    -.159814953804D-05  .139982452383D-01  .395439565182D-05  .515362827682D+04
     .288000000000D+06  .119209289551D-06  .204912353077D+01 -.186264514923D-06
     .964303147851D+00  .302781250000D+03 -.209157072058D+01 -.811605235187D-08
    -.232509684962D-09  .100000000000D+01  .149700000000D+04  .000000000000D+00
     .340000000000D+01  .000000000000D+00 -.102445483208D-07  .530000000000D+02
     .280806000000D+06  .400000000000D+01
30 08  9 17  8  0  0.0  .970792025328D-04  .204636307899D-11  .000000000000D+00
     .123000000000D+03 -.242812500000D+02  .519378777068D-08 -.260846647088D+01
    -.111199915409D-05  .110964654014D-01  .363215804100D-05  .515368078995D+04
     .288000000000D+06  .102445483208D-06  .198037888460D+01  .000000000000D+00
     .949364638882D+00  .302937500000D+03  .140004542681D+01 -.834641909043D-08
    -.155720772109D-09  .100000000000D+01  .149700000000D+04  .000000000000D+00
     .340000000000D+01  .000000000000D+00 -.791624188423D-08  .123000000000D+03
     .280806000000D+06  .400000000000D+01
32 08  9 17  8  0  0.0  .316310673952D-03  .454747350886D-12  .000000000000D+00
     .230000000000D+02 -.360312500000D+02  .502020911186D-08  .845307207147D+00
    -.209733843803D-05  .139511630405D-01  .261329114437D-05  .515375887680D+04
     .288000000000D+06 -.912696123123D-07 -.103542968651D+01 -.195577740669D-06
     .967289142127D+00  .336843750000D+03 -.128723612717D+01 -.873357807430D-08
    -.127148153374D-09  .100000000000D+01  .149700000000D+04  .000000000000D+00
     .240000000000D+01  .000000000000D+00 -.325962901115D-08  .230000000000D+02
     .280806000000D+06  .400000000000D+01
15 08  9 17  7 59 44.0 -.178737100214D-03 -.648014975013D-11  .000000000000D+00
     .000000000000D+00 -.949375000000D+02  .454876090272D-08  .302243037764D+01
    -.482238829136D-05  .899852719158D-03  .112559646368D-04  .515370689583D+04
     .287984000000D+06  .109896063805D-06 -.856611110777D-01  .949949026108D-07
     .957713772760D+00  .158406250000D+03 -.118820295884D+01 -.808212236712D-08
    -.256082095419D-09  .100000000000D+01  .149700000000D+04  .000000000000D+00
     .240000000000D+01  .000000000000D+00 -.977888703346D-08  .000000000000D+00
     .281916000000D+06  .400000000000D+01
11 08  9 17  7 59 44.0  .197011977434D-04 -.682121026330D-12  .000000000000D+00
     .900000000000D+01  .947187500000D+02  .603560855018D-08 -.161269006690D+00
     .506080687046D-05  .848340033554D-02  .955350697041D-05  .515365204430D+04
     .287984000000D+06  .894069671631D-07 -.236591622159D+01  .931322574615D-07
     .890780146031D+00  .158125000000D+03  .614528806551D+00 -.892858619717D-08
     .338228374284D-09  .100000000000D+01  .149700000000D+04  .000000000000D+00
     .240000000000D+01  .000000000000D+00 -.121071934700D-07  .900000000000D+01
     .282126000000D+06  .400000000000D+01
 2 08  9 17  7 59 44.0  .186793506145D-03 -.284217094304D-11  .000000000000D+00
     .910000000000D+02  .120125000000D+03  .485413076546D-08  .180349833593D+01
     .611320137978D-05  .876707979478D-02  .792928040028D-05  .515378127480D+04
     .287984000000D+06  .149011611938D-07 -.217850142950D+01  .167638063431D-06
     .942727622401D+00  .216125000000D+03  .264149266868D+01 -.821819946385D-08
     .358229207399D-09  .100000000000D+01  .149700000000D+04  .000000000000D+00
     .240000000000D+01  .000000000000D+00 -.172294676304D-07  .910000000000D+02
     .284706000000D+06  .400000000000D+01
18 08  9 17  7 59 44.0 -.133039429784D-03  .409272615798D-11  .000000000000D+00
     .140000000000D+02 -.408125000000D+02  .537665253059D-08 -.216648003624D+01
    -.222213566303D-05  .988015776966D-02  .137090682983D-05  .515371464157D+04
     .287984000000D+06  .100582838058D-06 -.108600621700D+01 -.819563865662D-07
     .945779992196D+00  .343875000000D+03 -.246427459993D+01 -.874322133312D-08
    -.110718897601D-10  .100000000000D+01  .149700000000D+04  .000000000000D+00
     .240000000000D+01  .000000000000D+00 -.107102096081D-07  .140000000000D+02
     .284916000000D+06  .400000000000D+01
